[{"OBJECT_NAME":"STARLINK-2738","OBJECT_ID":"2021-044AG","EPOCH":"2026-03-09T18:53:39.417792","MEAN_MOTION":15.30207829,"ECCENTRICITY":0.00013237,"INCLINATION":53.1579,"RA_OF_ASC_NODE":103.5158,"ARG_OF_PERICENTER":95.9871,"MEAN_ANOMALY":264.128,"EPHEMERIS_TYPE":0,"CLASSIFICATION_TYPE":"U","NORAD_CAT_ID":48668,"ELEMENT_SET_NO":999,"REV_AT_EPOCH":26398,"BSTAR":5.8239615e-5,"MEAN_MOTION_DOT":1.366e-5,"MEAN_MOTION_DDOT":0},{"OBJECT_NAME":"TRANSPORTER-1 OBJECT M","OBJECT_ID":"2021-006M","EPOCH":"2026-03-09T22:05:37.843296","MEAN_MOTION":15.3227845,"ECCENTRICITY":0.00102759,"INCLINATION":97.2377,"RA_OF_ASC_NODE":116.7915,"ARG_OF_PERICENTER":187.5492,"MEAN_ANOMALY":172.5597,"EPHEMERIS_TYPE":0,"CLASSIFICATION_TYPE":"U","NORAD_CAT_ID":47424,"ELEMENT_SET_NO":999,"REV_AT_EPOCH":28439,"BSTAR":0.00023985652,"MEAN_MOTION_DOT":7.411e-5,"MEAN_MOTION_DDOT":0}]
